[{"OBJECT_NAME":"STARLINK-32912","OBJECT_ID":"2025-037M","EPOCH":"2026-03-09T22:33:46.780128","MEAN_MOTION":14.98375815,"ECCENTRICITY":0.00031393,"INCLINATION":70.0026,"RA_OF_ASC_NODE":353.661,"ARG_OF_PERICENTER":270.3794,"MEAN_ANOMALY":89.7005,"EPHEMERIS_TYPE":0,"CLASSIFICATION_TYPE":"U","NORAD_CAT_ID":63088,"ELEMENT_SET_NO":999,"REV_AT_EPOCH":5874,"BSTAR":0.0025884925,"MEAN_MOTION_DOT":0.00030966,"MEAN_MOTION_DDOT":0},{"OBJECT_NAME":"CZ-6A DEB","OBJECT_ID":"2022-151CD","EPOCH":"2026-03-09T04:34:52.178880","MEAN_MOTION":15.04926808,"ECCENTRICITY":0.00436133,"INCLINATION":98.6267,"RA_OF_ASC_NODE":153.8749,"ARG_OF_PERICENTER":159.2339,"MEAN_ANOMALY":201.0669,"EPHEMERIS_TYPE":0,"CLASSIFICATION_TYPE":"U","NORAD_CAT_ID":54334,"ELEMENT_SET_NO":999,"REV_AT_EPOCH":17669,"BSTAR":0.0057373504,"MEAN_MOTION_DOT":0.00083812,"MEAN_MOTION_DDOT":0}]
